[{"OBJECT_NAME":"OBJECT J","OBJECT_ID":"2023-085J","EPOCH":"2026-03-09T22:47:59.920512","MEAN_MOTION":15.31507187,"ECCENTRICITY":0.00067028,"INCLINATION":97.4828,"RA_OF_ASC_NODE":180.1819,"ARG_OF_PERICENTER":41.7877,"MEAN_ANOMALY":318.3875,"EPHEMERIS_TYPE":0,"CLASSIFICATION_TYPE":"U","NORAD_CAT_ID":57012,"ELEMENT_SET_NO":999,"REV_AT_EPOCH":15156,"BSTAR":0.00064525349,"MEAN_MOTION_DOT":0.00019595,"MEAN_MOTION_DDOT":0},{"OBJECT_NAME":"STARLINK-31209","OBJECT_ID":"2024-020H","EPOCH":"2026-03-09T21:31:33.708288","MEAN_MOTION":15.30186782,"ECCENTRICITY":0.00010168,"INCLINATION":53.1621,"RA_OF_ASC_NODE":321.4006,"ARG_OF_PERICENTER":77.5204,"MEAN_ANOMALY":282.5911,"EPHEMERIS_TYPE":0,"CLASSIFICATION_TYPE":"U","NORAD_CAT_ID":58883,"ELEMENT_SET_NO":999,"REV_AT_EPOCH":11810,"BSTAR":-3.7895091e-5,"MEAN_MOTION_DOT":-1.481e-5,"MEAN_MOTION_DDOT":0}]
